[
    {
        "CCSDS_OMM_VERS": "3.0",
        "COMMENT": "GENERATED VIA SPACE-TRACK.ORG API",
        "CREATION_DATE": "2025-03-02T18:08:23",
        "ORIGINATOR": "18 SPCS",
        "OBJECT_NAME": "NAVSTAR 69 (USA 248)",
        "OBJECT_ID": "2014-008A",
        "CENTER_NAME": "EARTH",
        "REF_FRAME": "TEME",
        "TIME_SYSTEM": "UTC",
        "MEAN_ELEMENT_THEORY": "SGP4",
        "EPOCH": "2025-03-02T00:41:04.313760",
        "MEAN_MOTION": "2.00556870",
        "ECCENTRICITY": "0.00761380",
        "INCLINATION": "53.6079",
        "RA_OF_ASC_NODE": "168.5676",
        "ARG_OF_PERICENTER": "222.5740",
        "MEAN_ANOMALY": "136.8396",
        "EPHEMERIS_TYPE": "0",
        "CLASSIFICATION_TYPE": "U",
        "NORAD_CAT_ID": "39533",
        "ELEMENT_SET_NO": "999",
        "REV_AT_EPOCH": "8021",
        "BSTAR": "0.00000000000000",
        "MEAN_MOTION_DOT": "0.00000029",
        "MEAN_MOTION_DDOT": "0.0000000000000",
        "SEMIMAJOR_AXIS": "26560.942",
        "PERIOD": "718.001",
        "APOAPSIS": "20385.037",
        "PERIAPSIS": "19980.578",
        "OBJECT_TYPE": "PAYLOAD",
        "RCS_SIZE": "LARGE",
        "COUNTRY_CODE": "US",
        "LAUNCH_DATE": "2014-02-21",
        "SITE": "AFETR",
        "DECAY_DATE": null,
        "FILE": "4657142",
        "GP_ID": "282084369",
        "TLE_LINE0": "0 NAVSTAR 69 (USA 248)",
        "TLE_LINE1": "1 39533U 14008A   25061.02852215  .00000029  00000-0  00000-0 0  9996",
        "TLE_LINE2": "2 39533  53.6079 168.5676 0076138 222.5740 136.8396  2.00556870 80211"
    }
]